start=new Date('2022-05-30T00:00:00.000Z').valueOf();
sats=[{"OBJECT_TYPE":"PAYLOAD","COUNTRY_CODE":"US","MEAN_MOTION_DDOT":"0.0000000000000","PERIOD":"91.533","NORAD_CAT_ID":"52694","REF_FRAME":"TEME","ELEMENT_SET_NO":"999","BSTAR":"0.00023972000000","EPOCH":"2022-05-29T19:59:44.198016","TLE_LINE2":"2 52694  53.2122 241.3867 0000817 325.2163  34.8804 15.73209811  2514","SITE":"AFETR","GP_ID":"204893416","FILE":"3471362","CENTER_NAME":"EARTH","SEMIMAJOR_AXIS":"6727.867","INCLINATION":"53.2122","OBJECT_NAME":"STARLINK-4072","MEAN_ANOMALY":"34.8804","APOAPSIS":"350.282","RA_OF_ASC_NODE":"241.3867","TIME_SYSTEM":"UTC","PERIAPSIS":"349.183","LAUNCH_DATE":"2022-05-18","MEAN_MOTION_DOT":"0.00033170","DECAY_DATE":null,"OBJECT_ID":"2022-053AQ","MEAN_ELEMENT_THEORY":"SGP4","ECCENTRICITY":"0.00008170","RCS_SIZE":null,"CLASSIFICATION_TYPE":"U","MEAN_MOTION":"15.73209811","ARG_OF_PERICENTER":"325.2163","EPHEMERIS_TYPE":"0","REV_AT_EPOCH":"251","TLE_LINE1":"1 52694U 22053AQ  22149.83315044  .00033170  00000-0  23972-3 0  9994"},{"GP_ID":"204893177","FILE":"3471362","SITE":"AFETR","BSTAR":"0.00036018000000","EPOCH":"2022-05-29T16:55:50.915424","TLE_LINE2":"2 52695  53.2110 242.0110 0000207 336.3059  23.7952 15.73221860  2509","ELEMENT_SET_NO":"999","REF_FRAME":"TEME","NORAD_CAT_ID":"52695","COUNTRY_CODE":"US","PERIOD":"91.532","OBJECT_TYPE":"PAYLOAD","MEAN_MOTION_DDOT":"0.0000000000000","APOAPSIS":"349.837","MEAN_ANOMALY":"23.7952","OBJECT_NAME":"STARLINK-4041","RA_OF_ASC_NODE":"242.0110","CENTER_NAME":"EARTH","SEMIMAJOR_AXIS":"6727.833","INCLINATION":"53.2110","OBJECT_ID":"2022-053AR","RCS_SIZE":null,"ECCENTRICITY":"0.00002070","MEAN_ELEMENT_THEORY":"SGP4","MEAN_MOTION_DOT":"0.00050280","DECAY_DATE":null,"LAUNCH_DATE":"2022-05-18","PERIAPSIS":"349.559","TIME_SYSTEM":"UTC","TLE_LINE1":"1 52695U 22053AR  22149.70545041  .00050280  00000-0  36018-3 0  9999","REV_AT_EPOCH":"250","ARG_OF_PERICENTER":"336.3059","EPHEMERIS_TYPE":"0","CLASSIFICATION_TYPE":"U","MEAN_MOTION":"15.73221860"},{"MEAN_MOTION":"15.73126768","CLASSIFICATION_TYPE":"U","ARG_OF_PERICENTER":"30.9408","EPHEMERIS_TYPE":"0","REV_AT_EPOCH":"211","TLE_LINE1":"1 52696U 22053AS  22149.83334491  .00039638  00000-0  28639-3 0  9993","TIME_SYSTEM":"UTC","PERIAPSIS":"348.598","LAUNCH_DATE":"2022-05-18","DECAY_DATE":null,"MEAN_MOTION_DOT":"0.00039638","MEAN_ELEMENT_THEORY":"SGP4","ECCENTRICITY":"0.00020370","RCS_SIZE":null,"OBJECT_ID":"2022-053AS","INCLINATION":"53.2140","CENTER_NAME":"EARTH","SEMIMAJOR_AXIS":"6728.104","RA_OF_ASC_NODE":"241.3839","OBJECT_NAME":"STARLINK-4025","MEAN_ANOMALY":"332.0441","APOAPSIS":"351.339","COUNTRY_CODE":"US","MEAN_MOTION_DDOT":"0.0000000000000","OBJECT_TYPE":"PAYLOAD","PERIOD":"91.537","REF_FRAME":"TEME","NORAD_CAT_ID":"52696","ELEMENT_SET_NO":"999","TLE_LINE2":"2 52696  53.2140 241.3839 0002037  30.9408 332.0441 15.73126768  2118","BSTAR":"0.00028639000000","EPOCH":"2022-05-29T20:00:01.000224","SITE":"AFETR","GP_ID":"204860291","FILE":"3471030"},{"REV_AT_EPOCH":"211","TLE_LINE1":"1 52697U 22053AT  22149.83334491 -.00022618  00000-0 -15715-3 0  9997","EPHEMERIS_TYPE":"0","ARG_OF_PERICENTER":"31.2818","MEAN_MOTION":"15.73200138","CLASSIFICATION_TYPE":"U","MEAN_ELEMENT_THEORY":"SGP4","RCS_SIZE":null,"ECCENTRICITY":"0.00017860","OBJECT_ID":"2022-053AT","DECAY_DATE":null,"MEAN_MOTION_DOT":"-0.00022618","LAUNCH_DATE":"2022-05-18","TIME_SYSTEM":"UTC","PERIAPSIS":"348.558","RA_OF_ASC_NODE":"241.3772","MEAN_ANOMALY":"334.7062","OBJECT_NAME":"STARLINK-4018","APOAPSIS":"350.961","INCLINATION":"53.2140","SEMIMAJOR_AXIS":"6727.895","CENTER_NAME":"EARTH","SITE":"AFETR","GP_ID":"204860622","FILE":"3471020","TLE_LINE2":"2 52697  53.2140 241.3772 0001786  31.2818 334.7062 15.73200138  2116","EPOCH":"2022-05-29T20:00:01.000224","BSTAR":"-0.00015715000000","ELEMENT_SET_NO":"999","COUNTRY_CODE":"US","OBJECT_TYPE":"PAYLOAD","PERIOD":"91.533","MEAN_MOTION_DDOT":"0.0000000000000","NORAD_CAT_ID":"52697","REF_FRAME":"TEME"},{"RA_OF_ASC_NODE":"241.3815","APOAPSIS":"351.001","MEAN_ANOMALY":"326.2350","OBJECT_NAME":"STARLINK-4030","INCLINATION":"53.2144","CENTER_NAME":"EARTH","SEMIMAJOR_AXIS":"6727.869","TLE_LINE2":"2 52698  53.2144 241.3815 0001883  37.9297 326.2350 15.73209161  2112","BSTAR":"-0.00012478000000","EPOCH":"2022-05-29T20:00:01.000224","GP_ID":"204860122","FILE":"3471020","SITE":"AFETR","REF_FRAME":"TEME","NORAD_CAT_ID":"52698","COUNTRY_CODE":"US","OBJECT_TYPE":"PAYLOAD","PERIOD":"91.533","MEAN_MOTION_DDOT":"0.0000000000000","ELEMENT_SET_NO":"999","ARG_OF_PERICENTER":"37.9297","EPHEMERIS_TYPE":"0","REV_AT_EPOCH":"211","TLE_LINE1":"1 52698U 22053AU  22149.83334491 -.00018103  00000-0 -12478-3 0  9995","MEAN_MOTION":"15.73209161","CLASSIFICATION_TYPE":"U","DECAY_DATE":null,"MEAN_MOTION_DOT":"-0.00018103","ECCENTRICITY":"0.00018830","RCS_SIZE":null,"MEAN_ELEMENT_THEORY":"SGP4","OBJECT_ID":"2022-053AU","PERIAPSIS":"348.467","TIME_SYSTEM":"UTC","LAUNCH_DATE":"2022-05-18"},{"NORAD_CAT_ID":"52699","REF_FRAME":"TEME","OBJECT_TYPE":"PAYLOAD","COUNTRY_CODE":"US","PERIOD":"91.532","MEAN_MOTION_DDOT":"0.0000000000000","ELEMENT_SET_NO":"999","BSTAR":"0.00054021000000","EPOCH":"2022-05-29T21:29:41.892864","TLE_LINE2":"2 52699  53.2111 241.0647 0000825 115.4732 244.6373 15.73219441  2556","FILE":"3471362","GP_ID":"204893516","SITE":"AFETR","SEMIMAJOR_AXIS":"6727.840","CENTER_NAME":"EARTH","INCLINATION":"53.2111","APOAPSIS":"350.260","OBJECT_NAME":"STARLINK-3987","MEAN_ANOMALY":"244.6373","RA_OF_ASC_NODE":"241.0647","PERIAPSIS":"349.150","TIME_SYSTEM":"UTC","LAUNCH_DATE":"2022-05-18","MEAN_MOTION_DOT":"0.00075946","DECAY_DATE":null,"OBJECT_ID":"2022-053AV","ECCENTRICITY":"0.00008250","RCS_SIZE":null,"MEAN_ELEMENT_THEORY":"SGP4","CLASSIFICATION_TYPE":"U","MEAN_MOTION":"15.73219441","EPHEMERIS_TYPE":"0","ARG_OF_PERICENTER":"115.4732","TLE_LINE1":"1 52699U 22053AV  22149.89562376  .00075946  00000-0  54021-3 0  9993","REV_AT_EPOCH":"255"},{"INCLINATION":"53.2109","CENTER_NAME":"EARTH","SEMIMAJOR_AXIS":"6727.910","RA_OF_ASC_NODE":"241.0673","OBJECT_NAME":"STARLINK-4034","MEAN_ANOMALY":"292.5842","APOAPSIS":"350.502","ELEMENT_SET_NO":"999","COUNTRY_CODE":"US","PERIOD":"91.533","OBJECT_TYPE":"PAYLOAD","MEAN_MOTION_DDOT":"0.0000000000000","REF_FRAME":"TEME","NORAD_CAT_ID":"52700","SITE":"AFETR","GP_ID":"204893314","FILE":"3471362","TLE_LINE2":"2 52700  53.2109 241.0673 0001080  67.5292 292.5842 15.73194778  2533","EPOCH":"2022-05-29T21:30:09.727488","BSTAR":"0.00019551000000","MEAN_MOTION":"15.73194778","CLASSIFICATION_TYPE":"U","TLE_LINE1":"1 52700U 22053AW  22149.89594592  .00026900  00000-0  19551-3 0  9996","REV_AT_EPOCH":"253","ARG_OF_PERICENTER":"67.5292","EPHEMERIS_TYPE":"0","LAUNCH_DATE":"2022-05-18","TIME_SYSTEM":"UTC","PERIAPSIS":"349.048","MEAN_ELEMENT_THEORY":"SGP4","ECCENTRICITY":"0.00010800","RCS_SIZE":null,"OBJECT_ID":"2022-053AW","DECAY_DATE":null,"MEAN_MOTION_DOT":"0.00026900"},{"SITE":"AFETR","GP_ID":"204860142","FILE":"3471021","TLE_LINE2":"2 52701  53.2140 241.3717 0001992  32.4055 336.0230 15.73182047  2116","EPOCH":"2022-05-29T20:00:01.000224","BSTAR":"-0.00031158000000","ELEMENT_SET_NO":"999","COUNTRY_CODE":"US","MEAN_MOTION_DDOT":"0.0000000000000","OBJECT_TYPE":"PAYLOAD","PERIOD":"91.534","NORAD_CAT_ID":"52701","REF_FRAME":"TEME","RA_OF_ASC_NODE":"241.3717","MEAN_ANOMALY":"336.0230","OBJECT_NAME":"STARLINK-4003","APOAPSIS":"351.152","INCLINATION":"53.2140","CENTER_NAME":"EARTH","SEMIMAJOR_AXIS":"6727.946","MEAN_ELEMENT_THEORY":"SGP4","RCS_SIZE":null,"ECCENTRICITY":"0.00019920","OBJECT_ID":"2022-053AX","DECAY_DATE":null,"MEAN_MOTION_DOT":"-0.00044090","LAUNCH_DATE":"2022-05-18","TIME_SYSTEM":"UTC","PERIAPSIS":"348.471","TLE_LINE1":"1 52701U 22053AX  22149.83334491 -.00044090  00000-0 -31158-3 0  9990","REV_AT_EPOCH":"211","ARG_OF_PERICENTER":"32.4055","EPHEMERIS_TYPE":"0","MEAN_MOTION":"15.73182047","CLASSIFICATION_TYPE":"U"},{"CLASSIFICATION_TYPE":"U","MEAN_MOTION":"15.73215142","EPHEMERIS_TYPE":"0","ARG_OF_PERICENTER":"25.5761","REV_AT_EPOCH":"211","TLE_LINE1":"1 52702U 22053AY  22149.83334491 -.00052835  00000-0 -37412-3 0  9996","TIME_SYSTEM":"UTC","PERIAPSIS":"348.469","LAUNCH_DATE":"2022-05-18","MEAN_MOTION_DOT":"-0.00052835","DECAY_DATE":null,"OBJECT_ID":"2022-053AY","MEAN_ELEMENT_THEORY":"SGP4","ECCENTRICITY":"0.00018550","RCS_SIZE":null,"CENTER_NAME":"EARTH","SEMIMAJOR_AXIS":"6727.852","INCLINATION":"53.2143","MEAN_ANOMALY":"340.9475","OBJECT_NAME":"STARLINK-4033","APOAPSIS":"350.965","RA_OF_ASC_NODE":"241.3765","COUNTRY_CODE":"US","OBJECT_TYPE":"PAYLOAD","MEAN_MOTION_DDOT":"0.0000000000000","PERIOD":"91.532","NORAD_CAT_ID":"52702","REF_FRAME":"TEME","ELEMENT_SET_NO":"999","EPOCH":"2022-05-29T20:00:01.000224","BSTAR":"-0.00037412000000","TLE_LINE2":"2 52702  53.2143 241.3765 0001855  25.5761 340.9475 15.73215142  2116","SITE":"AFETR","FILE":"3471022","GP_ID":"204860168"},{"RA_OF_ASC_NODE":"241.0607","APOAPSIS":"350.217","OBJECT_NAME":"STARLINK-4020","MEAN_ANOMALY":"178.2478","INCLINATION":"53.2108","SEMIMAJOR_AXIS":"6727.681","CENTER_NAME":"EARTH","TLE_LINE2":"2 52703  53.2108 241.0607 0000998 181.8539 178.2478 15.73275145  1276","EPOCH":"2022-05-29T21:28:55.669728","BSTAR":"0.00060853000000","FILE":"3471362","GP_ID":"204893178","SITE":"AFETR","NORAD_CAT_ID":"52703","REF_FRAME":"TEME","OBJECT_TYPE":"PAYLOAD","COUNTRY_CODE":"US","MEAN_MOTION_DDOT":"0.0000000000000","PERIOD":"91.529","ELEMENT_SET_NO":"999","EPHEMERIS_TYPE":"0","ARG_OF_PERICENTER":"181.8539","TLE_LINE1":"1 52703U 22053AZ  22149.89508877  .00085938  00000-0  60853-3 0  9997","REV_AT_EPOCH":"127","MEAN_MOTION":"15.73275145","CLASSIFICATION_TYPE":"U","DECAY_DATE":null,"MEAN_MOTION_DOT":"0.00085938","RCS_SIZE":null,"ECCENTRICITY":"0.00009980","MEAN_ELEMENT_THEORY":"SGP4","OBJECT_ID":"2022-053AZ","PERIAPSIS":"348.875","TIME_SYSTEM":"UTC","LAUNCH_DATE":"2022-05-18"}];
